COSMOS 2433 (720)       
1 32275U 07052A   25285.14738950 -.00000041  00000+0  00000+0 0  9996
2 32275  65.7143 324.2756 0005852 237.0539 122.9515  2.13104041139773
COSMOS 2432 (719)       
1 32276U 07052B   25283.85473186 -.00000039  00000+0  00000+0 0  9997
2 32276  65.7306 324.4421 0009933 306.5563  86.4331  2.13103043139770
COSMOS 2434 (721)       
1 32393U 07065A   25280.29240098  .00000027  00000+0  00000+0 0  9996
2 32393  64.3158 200.4447 0002181  57.8607  68.4626  2.13101168138383
COSMOS 2436 (723)       
1 32395U 07065C   25279.17308701  .00000019  00000+0  00000+0 0  9990
2 32395  64.3246 200.5519 0017186   0.9922 120.0109  2.13099924138314
COSMOS 2456 (730)       
1 36111U 09070A   25285.36683538  .00000033  00000+0  00000+0 0  9996
2 36111  64.8659  79.4353 0001399 333.5231 242.4298  2.13103543123149
COSMOS 2457 (733)       
1 36112U 09070B   25279.70985178  .00000045  00000+0  00000+0 0  9996
2 36112  64.8475  79.4775 0006039 139.2500 186.6045  2.13100982123020
COSMOS 2460 (732)       
1 36402U 10007C   25284.68033333 -.00000039  00000+0  00000+0 0  9994
2 36402  65.5620 322.8703 0002826 238.9585 298.5708  2.13106120121430
COSMOS 2476 (744)       
1 37867U 11064A   25285.43463279  .00000037  00000+0  00000+0 0  9991
2 37867  65.1290  81.2445 0022473 230.5384 306.2766  2.13101365108486
COSMOS 2477 (745)       
1 37868U 11064B   25280.51745134  .00000043  00000+0  00000+0 0  9996
2 37868  65.1329  81.4877 0019460 230.6384 314.4958  2.13102850108376
COSMOS 2475 (743)       
1 37869U 11064C   25281.97195182  .00000033  00000+0  00000+0 0  9999
2 37869  65.1403  81.4580 0024197 246.7311 290.5015  2.13101576108419
COSMOS 2485 (747)       
1 39155U 13019A   25284.20299108  .00000033  00000+0  00000+0 0  9993
2 39155  65.2812  81.9691 0022989 226.4353 133.3795  2.13104339 96976
COSMOS 2492 (754)       
1 39620U 14012A   25280.87661119 -.00000021  00000+0  00000+0 0  9996
2 39620  65.4424 322.5060 0012845 306.9243  53.0338  2.13103125 89863
COSMOS 2500 (755)       
1 40001U 14032A   25283.39593584 -.00000035  00000+0  00000+0 0  9998
2 40001  65.3770 322.1875 0009368 211.5167 148.4921  2.13105851 88137
COSMOS 2501 (702K)      
1 40315U 14075A   25278.96209949  .00000018  00000+0  00000+0 0  9999
2 40315  63.6151 199.1714 0020906 208.6171 151.2888  2.13101279 84439
COSMOS 2514 (751)       
1 41330U 16008A   25285.04649091 -.00000037  00000+0  00000+0 0  9990
2 41330  65.1670 321.5182 0013485 214.9607 145.0102  2.13102496 75339
COSMOS 2522 (752)       
1 42939U 17055A   25281.13084801  .00000032  00000+0  00000+0 0  9991
2 42939  64.0770 200.4623 0008394 235.8136 124.1362  2.13101861 62608
COSMOS 2527 (756)       
1 43508U 18053A   25284.37627017  .00000034  00000+0  00000+0 0  9996
2 43508  65.4394  82.2151 0007568 214.0056 145.9519  2.13102089 56973
COSMOS 2529 (757)       
1 43687U 18086A   25284.47384174  .00000015  00000+0  00000+0 0  9994
2 43687  64.2926 200.9910 0009410 257.2495 102.6827  2.13101925 53983
COSMOS 2534 (758)       
1 44299U 19030A   25280.20502529  .00000026  00000+0  00000+0 0  9999
2 44299  64.3664 201.1333 0011282 279.9657 179.4735  2.13101899 49532
COSMOS 2544 (759)       
1 44850U 19088A   25282.91297788  .00000032  00000+0  00000+0 0  9990
2 44850  65.4260  82.0920 0011975 245.7086 114.1725  2.13101877 45383
COSMOS 2545 (760)       
1 45358U 20018A   25284.04757983 -.00000037  00000+0  00000+0 0  9999
2 45358  64.5037 321.1698 0012285 241.3459 118.5916  2.13102422 43351
COSMOS 2547 (705K)      
1 46805U 20075A   25280.01151130  .00000025  00000+0  00000+0 0  9991
2 46805  64.5970 200.9234 0007647 236.6415 123.3077  2.13099754 38517
COSMOS 2557 (706K)      
1 52984U 22075A   25283.46226985 -.00000038  00000+0  00000+0 0  9996
2 52984  64.4431 323.2776 0013440 272.1169  87.7939  2.13101948 25393
COSMOS 2559 (707K)      
1 54031U 22130A   25283.28129191 -.00000038  00000+0  00000+0 0  9994
2 54031  64.4156 323.3756 0013034 190.5084 169.5295  2.13101450 23366
COSMOS 2564 (761)       
1 54377U 22161A   25285.00267274  .00000007  00000+0  00000+0 0  9993
2 54377  64.7384 200.9481 0009973 217.0438 142.9242  2.13102007 22348
COSMOS 2569 (703K)      
1 57517U 23114A   25283.13950902  .00000029  00000+0  00000+0 0  9994
2 57517  65.1597  81.0618 0008645 290.1532  69.7585  2.13103755 16935
COSMOS 2584 (704K)      
1 63130U 25042A   25279.74113634  .00000049  00000+0  00000+0 0  9991
2 63130  64.9391  81.4273 0006836 203.1802 156.8085  2.13103311  4643
